OBJECT_NAME,OBJECT_ID,EPOCH,MEAN_MOTION,ECCENTRICITY,INCLINATION,RA_OF_ASC_NODE,ARG_OF_PERICENTER,MEAN_ANOMALY,EPHEMERIS_TYPE,CLASSIFICATION_TYPE,NORAD_CAT_ID,ELEMENT_SET_NO,REV_AT_EPOCH,BSTAR,MEAN_MOTION_DOT,MEAN_MOTION_DDOT
SL-16 R/B,1996-051B,2026-06-07T18:05:43.877184,14.12442838,.0014653,70.7634,344.6138,351.2685,8.8177,0,U,24298,999,53436,.98419E-4,.133E-5,0
ORBVIEW 2 (SEASTAR),1997-037A,2026-06-07T17:59:56.855040,14.35548883,.0002896,98.8682,325.5081,135.7304,224.4112,0,U,24883,999,52139,.12194E-3,.304E-5,0
SL-16 R/B,1998-043G,2026-06-07T18:00:57.340224,14.26067104,.0010875,98.8359,112.8290,111.0125,249.2219,0,U,25400,999,45182,.46313E-4,.65E-6,0
SL-16 R/B,1998-045B,2026-06-07T20:12:11.088000,14.16204661,.0009535,71.0121,351.9840,252.9402,107.0677,0,U,25407,999,43986,.51466E-4,.54E-6,0
ISS (ZARYA),1998-067A,2026-06-07T18:32:07.702368,15.49658440,.0006971,51.6339,346.6979,145.1134,215.0313,0,U,25544,999,57029,.15059E-3,.805E-4,0
CZ-4B R/B,1999-025C,2026-06-07T18:22:24.060000,14.18281907,.0038254,98.6487,200.8408,85.9485,27.8023,0,U,25732,999,40093,.45613E-4,.52E-6,0
OKEAN-O,1999-039A,2026-06-07T18:00:09.162720,14.80456617,.000184,97.9318,217.6560,78.4963,281.6455,0,U,25860,999,44771,.10246E-3,.731E-5,0
SL-16 R/B,1999-039B,2026-06-07T17:06:55.987200,14.81836462,.0014022,97.9841,217.6027,330.1691,29.8721,0,U,25861,999,45019,.81335E-4,.589E-5,0
DELTA 2 R/B,1999-041E,2026-06-07T16:34:53.696064,14.11999516,.0500945,51.7662,301.7299,253.9423,100.5810,0,U,25876,999,37574,.1855E-3,.919E-5,0
HELIOS 1B,1999-064A,2026-06-07T16:43:42.407904,14.87982932,.0002325,98.1622,63.5621,105.2009,254.9463,0,U,25977,999,69864,.20016E-3,.1778E-4,0
TERRA,1999-068A,2026-06-07T18:33:22.414176,14.61096106,.0000911,97.9460,208.6923,236.1841,189.1368,0,U,25994,999,40823,.10624E-3,.478E-5,0
SL-16 R/B,2000-006B,2026-06-07T17:44:34.941984,14.15836821,.0015054,71.0033,268.4903,37.9355,322.2825,0,U,26070,999,36130,-.75326E-4,-.196E-5,0
TITAN 4B R/B,2000-047B,2026-06-07T18:54:32.628960,15.10143198,.0045558,67.9877,147.0292,296.5824,63.0660,0,U,26474,999,40651,.21469E-3,.3457E-4,0
ENVISAT,2002-009A,2026-06-07T19:02:26.009376,14.39062705,.000134,98.3830,110.3215,91.0170,331.4929,0,U,27386,999,27213,.49598E-4,.11E-5,0
IDEFIX & ARIANE 42P R/B,2002-021B,2026-06-07T18:15:21.038688,14.31077916,.0010621,98.5941,96.3460,284.7504,75.2502,0,U,27422,999,25690,.11199E-3,.251E-5,0
AQUA,2002-022A,2026-06-07T19:42:15.422976,14.62144478,.0001471,98.4272,127.9171,54.8759,34.0215,0,U,27424,999,28190,.19527E-3,.933E-5,0
CZ-4B R/B,2002-024C,2026-06-07T18:31:40.813824,14.14562966,.0051035,98.8703,211.6527,126.4401,344.7670,0,U,27432,999,24197,.49337E-4,.52E-6,0
MIDORI II (ADEOS-II),2002-056A,2026-06-07T18:11:17.100384,14.29344656,.0002227,98.7873,117.9377,90.1246,270.0191,0,U,27597,999,22316,.13724E-3,.304E-5,0
H-2A R/B,2002-056E,2026-06-07T17:33:37.000800,14.33818247,.0068878,98.3308,115.7511,253.1674,173.7952,0,U,27601,999,22701,.10156E-3,.248E-5,0
CZ-4B R/B,2003-049C,2026-06-07T17:48:14.493024,14.55094153,.0047296,98.6896,157.2124,318.0395,41.7181,0,U,28059,999,19969,.10092E-3,.39E-5,0
CZ-2C R/B,2004-012C,2026-06-07T17:05:24.874080,15.77195190,.0008767,97.7086,233.2873,326.5186,33.5524,0,U,28222,999,21840,.5747E-3,.94688E-3,0
SL-16 R/B,2004-021B,2026-06-07T18:09:29.884032,14.14612412,.0007505,71.0022,43.4813,265.8321,94.1944,0,U,28353,999,13557,-.83581E-4,-.208E-5,0
CZ-4B R/B,2004-035C,2026-06-07T15:40:07.084128,15.30486464,.0031114,97.3373,191.8346,12.3065,347.8928,0,U,28415,999,19366,.29559E-3,.8766E-4,0
CZ-2C R/B,2004-046B,2026-06-07T17:25:03.510048,14.27024678,.0138136,98.1950,68.0972,248.4529,110.1883,0,U,28480,999,12134,.53237E-4,.101E-5,0
ARIANE 5 R/B,2004-049H,2026-06-07T10:19:42.803328,14.85435947,.0085041,98.2717,330.3072,60.7226,300.2454,0,U,28499,999,15911,.10693E-3,.919E-5,0
CZ-2D R/B,2005-024B,2026-06-07T18:44:02.795424,15.68537850,.0004821,97.3496,177.7457,73.2439,286.9351,0,U,28738,999,15386,.54252E-3,.61565E-3,0
ALOS (DAICHI),2006-002A,2026-06-07T18:22:15.941856,14.70032336,.0001813,98.1319,114.3626,62.1963,297.9427,0,U,28931,999,8671,.2231E-3,.1289E-4,0
H-2A R/B,2006-002B,2026-06-07T16:39:48.388320,15.17945973,.0049689,98.2562,313.6666,295.4405,64.1689,0,U,28932,999,10808,.33831E-3,.7009E-4,0
RESURS-DK 1,2006-021A,2026-06-07T20:19:31.340928,15.13176415,.0006429,69.9339,3.7309,299.4209,60.6315,0,U,29228,999,10116,.16131E-3,.2762E-4,0
CZ-4B R/B,2006-046C,2026-06-07T16:38:11.134752,15.17715043,.0031434,97.5454,203.3296,317.3736,42.5058,0,U,29507,999,7369,.22874E-3,.46E-4,0
CZ-2C R/B,2007-010B,2026-06-07T18:15:26.539776,14.20274125,.0059573,98.4091,267.5732,33.3979,327.0934,0,U,31114,999,99250,.69513E-4,.11E-5,0
