SL-16 R/B               
1 24298U 96051B   26158.75398006  .00000133  00000+0  98419-4 0  9997
2 24298  70.7634 344.6138 0014653 351.2685   8.8177 14.12442838534361
ORBVIEW 2 (SEASTAR)     
1 24883U 97037A   26158.74996360  .00000304  00000+0  12194-3 0  9993
2 24883  98.8682 325.5081 0002896 135.7304 224.4112 14.35548883521395
SL-16 R/B               
1 25400U 98043G   26158.75066366  .00000065  00000+0  46313-4 0  9997
2 25400  98.8359 112.8290 0010875 111.0125 249.2219 14.26067104451820
SL-16 R/B               
1 25407U 98045B   26158.84179500  .00000054  00000+0  51466-4 0  9994
2 25407  71.0121 351.9840 0009535 252.9402 107.0677 14.16204661439867
ISS (ZARYA)             
1 25544U 98067A   26158.77231137  .00008050  00000+0  15059-3 0  9998
2 25544  51.6339 346.6979 0006971 145.1134 215.0313 15.49658440570299
CZ-4B R/B               
1 25732U 99025C   26158.76555625  .00000052  00000+0  45613-4 0  9996
2 25732  98.6487 200.8408 0038254  85.9485  27.8023 14.18281907400935
OKEAN-O                 
1 25860U 99039A   26158.75010605  .00000731  00000+0  10246-3 0  9993
2 25860  97.9318 217.6560 0001840  78.4963 281.6455 14.80456617447713
SL-16 R/B               
1 25861U 99039B   26158.71314800  .00000589  00000+0  81335-4 0  9993
2 25861  97.9841 217.6027 0014022 330.1691  29.8721 14.81836462450190
DELTA 2 R/B             
1 25876U 99041E   26158.69089926  .00000919  00000+0  18550-3 0  9992
2 25876  51.7662 301.7299 0500945 253.9423 100.5810 14.11999516375746
HELIOS 1B               
1 25977U 99064A   26158.69701861  .00001778  00000+0  20016-3 0  9992
2 25977  98.1622  63.5621 0002325 105.2009 254.9463 14.87982932698641
TERRA                   
1 25994U 99068A   26158.77317609  .00000478  00000+0  10624-3 0  9997
2 25994  97.9460 208.6923 0000911 236.1841 189.1368 14.61096106408239
SL-16 R/B               
1 26070U 00006B   26158.73929331 -.00000196  00000+0 -75326-4 0  9994
2 26070  71.0033 268.4903 0015054  37.9355 322.2825 14.15836821361306
TITAN 4B R/B            
1 26474U 00047B   26158.78787765  .00003457  00000+0  21469-3 0  9994
2 26474  67.9877 147.0292 0045558 296.5824  63.0660 15.10143198406517
ENVISAT                 
1 27386U 02009A   26158.79335659  .00000110  00000+0  49598-4 0  9996
2 27386  98.3830 110.3215 0001340  91.0170 331.4929 14.39062705272131
IDEFIX & ARIANE 42P R/B 
1 27422U 02021B   26158.76066017  .00000251  00000+0  11199-3 0  9998
2 27422  98.5941  96.3460 0010621 284.7504  75.2502 14.31077916256905
AQUA                    
1 27424U 02022A   26158.82101184  .00000933  00000+0  19527-3 0  9993
2 27424  98.4272 127.9171 0001471  54.8759  34.0215 14.62144478281908
CZ-4B R/B               
1 27432U 02024C   26158.77200016  .00000052  00000+0  49337-4 0  9997
2 27432  98.8703 211.6527 0051035 126.4401 344.7670 14.14562966241979
MIDORI II (ADEOS-II)    
1 27597U 02056A   26158.75783681  .00000304  00000+0  13724-3 0  9996
2 27597  98.7873 117.9377 0002227  90.1246 270.0191 14.29344656223162
H-2A R/B                
1 27601U 02056E   26158.73167825  .00000248  00000+0  10156-3 0  9999
2 27601  98.3308 115.7511 0068878 253.1674 173.7952 14.33818247227012
CZ-4B R/B               
1 28059U 03049C   26158.74183441  .00000390  00000+0  10092-3 0  9990
2 28059  98.6896 157.2124 0047296 318.0395  41.7181 14.55094153199694
CZ-2C R/B               
1 28222U 04012C   26158.71209345  .00094688  00000+0  57470-3 0  9996
2 28222  97.7086 233.2873 0008767 326.5186  33.5524 15.77195190218404
SL-16 R/B               
1 28353U 04021B   26158.75659588 -.00000208  00000+0 -83581-4 0  9993
2 28353  71.0022  43.4813 0007505 265.8321  94.1944 14.14612412135570
CZ-4B R/B               
1 28415U 04035C   26158.65285977  .00008766  00000+0  29559-3 0  9992
2 28415  97.3373 191.8346 0031114  12.3065 347.8928 15.30486464193660
CZ-2C R/B               
1 28480U 04046B   26158.72573507  .00000101  00000+0  53237-4 0  9999
2 28480  98.1950  68.0972 0138136 248.4529 110.1883 14.27024678121348
ARIANE 5 R/B            
1 28499U 04049H   26158.43035652  .00000919  00000+0  10693-3 0  9999
2 28499  98.2717 330.3072 0085041  60.7226 300.2454 14.85435947159112
CZ-2D R/B               
1 28738U 05024B   26158.78058791  .00061565  00000+0  54252-3 0  9999
2 28738  97.3496 177.7457 0004821  73.2439 286.9351 15.68537850153864
ALOS (DAICHI)           
1 28931U 06002A   26158.76546229  .00001289  00000+0  22310-3 0  9994
2 28931  98.1319 114.3626 0001813  62.1963 297.9427 14.70032336 86710
H-2A R/B                
1 28932U 06002B   26158.69431005  .00007009  00000+0  33831-3 0  9998
2 28932  98.2562 313.6666 0049689 295.4405  64.1689 15.17945973108086
RESURS-DK 1             
1 29228U 06021A   26158.84689052  .00002762  00000+0  16131-3 0  9997
2 29228  69.9339   3.7309 0006429 299.4209  60.6315 15.13176415101166
CZ-4B R/B               
1 29507U 06046C   26158.69318443  .00004600  00000+0  22874-3 0  9994
2 29507  97.5454 203.3296 0031434 317.3736  42.5058 15.17715043 73692
CZ-2C R/B               
1 31114U 07010B   26158.76072384  .00000110  00000+0  69513-4 0  9996
2 31114  98.4091 267.5732 0059573  33.3979 327.0934 14.20274125992509
